[Satellite]
VERSION=1.1
NAME=STARLINK-5155
NICKNAME=STARLINK-5155
TLE1=1 54170U 22141P   22321.58334491 -.00053340  00000+0 -37752-3 0  9997
TLE2=2 54170  53.2196  42.2630 0002913  16.9099 104.5287 15.73225232  1304
STATUS=0
